[{"OBJECT_NAME":"STARLINK-31468","OBJECT_ID":"2024-036A","EPOCH":"2026-03-09T09:42:47.605824","MEAN_MOTION":15.30192121,"ECCENTRICITY":0.00011871,"INCLINATION":53.1605,"RA_OF_ASC_NODE":79.1732,"ARG_OF_PERICENTER":91.3032,"MEAN_ANOMALY":268.8105,"EPHEMERIS_TYPE":0,"CLASSIFICATION_TYPE":"U","NORAD_CAT_ID":58998,"ELEMENT_SET_NO":999,"REV_AT_EPOCH":11529,"BSTAR":0.00010551493,"MEAN_MOTION_DOT":2.766e-5,"MEAN_MOTION_DDOT":0},{"OBJECT_NAME":"KUIPER-00226","OBJECT_ID":"2026-030X","EPOCH":"2026-03-09T15:01:51.726432","MEAN_MOTION":15.30655594,"ECCENTRICITY":0.0017713,"INCLINATION":51.8814,"RA_OF_ASC_NODE":220.1252,"ARG_OF_PERICENTER":64.2781,"MEAN_ANOMALY":296.003,"EPHEMERIS_TYPE":0,"CLASSIFICATION_TYPE":"U","NORAD_CAT_ID":67785,"ELEMENT_SET_NO":999,"REV_AT_EPOCH":507,"BSTAR":0.001553,"MEAN_MOTION_DOT":0.00046834,"MEAN_MOTION_DDOT":0}]
