STARLINK-31468          
1 58998U 24036A   26068.40471766  .00002766  00000+0  10551-3 0  9996
2 58998  53.1605  79.1732 0001187  91.3032 268.8105 15.30192121115298
KUIPER-00226            
1 67785U 26030X   26068.62629313  .00046834  00000+0  15530-2 0  9998
2 67785  51.8814 220.1252 0017713  64.2781 296.0030 15.30655594  5078
